{"type": "FeatureCollection", "features": [ {"type": "Feature", "properties": {"norad_id": 44476, "name": "INTELSAT 39 (IS-39)", "group": "intelsat", "lat": -0.027943203587377386, "lon": -119.67617083876787, "alt_km": 35785.88169773263, "timestamp": "2025-12-27T05:29:38.862206+00:00", "meta": {"OBJECT_NAME": "INTELSAT 39 (IS-39)", "OBJECT_ID": "2019-049B", "EPOCH": "2025-12-26T21:07:11.165376", "MEAN_MOTION": 1.00270929, "ECCENTRICITY": 0.00010289, "INCLINATION": 0.0136, "RA_OF_ASC_NODE": 353.7552, "ARG_OF_PERICENTER": 162.3551, "MEAN_ANOMALY": 318.2509, "EPHEMERIS_TYPE": 0, "CLASSIFICATION_TYPE": "U", "NORAD_CAT_ID": 44476, "ELEMENT_SET_NO": 999, "REV_AT_EPOCH": 2340, "BSTAR": 0, "MEAN_MOTION_DOT": 5.6e-07, "MEAN_MOTION_DDOT": 0}, "tle": {"line1": "1 44476U 19049B   25360.87999034  .00000056  00000+0  00000+0 0  9992", "line2": "2 44476   0.0136 353.7552 0001028 162.3551 318.2509  1.00270929 23408"}}, "geometry": {"type": "Point", "coordinates": [-119.67617083876787, -0.027943203587377386]}}, {"type": "Feature", "properties": {"norad_id": 46114, "name": "GALAXY 30 (G-30)", "group": "intelsat", "lat": 0.01719126791026894, "lon": 53.3824472628519, "alt_km": 35793.68376857685, "timestamp": "2025-12-27T05:29:38.862218+00:00", "meta": {"OBJECT_NAME": "GALAXY 30 (G-30)", "OBJECT_ID": "2020-056C", "EPOCH": "2025-12-26T13:07:40.743840", "MEAN_MOTION": 1.0027099, "ECCENTRICITY": 0.0002392, "INCLINATION": 0.0083, "RA_OF_ASC_NODE": 313.2552, "ARG_OF_PERICENTER": 322.9444, "MEAN_ANOMALY": 251.0088, "EPHEMERIS_TYPE": 0, "CLASSIFICATION_TYPE": "U", "NORAD_CAT_ID": 46114, "ELEMENT_SET_NO": 999, "REV_AT_EPOCH": 1956, "BSTAR": 0, "MEAN_MOTION_DOT": 5.9e-07, "MEAN_MOTION_DDOT": 0}, "tle": {"line1": "1 46114U 20056C   25360.54699935  .00000059  00000+0  00000+0 0  9997", "line2": "2 46114   0.0083 313.2552 0002392 322.9444 251.0088  1.00270990 19567"}}, "geometry": {"type": "Point", "coordinates": [53.3824472628519, 0.01719126791026894]}}, {"type": "Feature", "properties": {"norad_id": 54026, "name": "GALAXY 33 (G-33)", "group": "intelsat", "lat": 0.017130727671831967, "lon": 45.39641687534097, "alt_km": 35791.01519791282, "timestamp": "2025-12-27T05:29:38.862230+00:00", "meta": {"OBJECT_NAME": "GALAXY 33 (G-33)", "OBJECT_ID": "2022-128A", "EPOCH": "2025-12-24T04:31:51.326400", "MEAN_MOTION": 1.00272122, "ECCENTRICITY": 0.0001643, "INCLINATION": 0.0126, "RA_OF_ASC_NODE": 315.9231, "ARG_OF_PERICENTER": 309.5058, "MEAN_ANOMALY": 122.5078, "EPHEMERIS_TYPE": 0, "CLASSIFICATION_TYPE": "U", "NORAD_CAT_ID": 54026, "ELEMENT_SET_NO": 999, "REV_AT_EPOCH": 1198, "BSTAR": 0, "MEAN_MOTION_DOT": 1e-06, "MEAN_MOTION_DDOT": 0}, "tle": {"line1": "1 54026U 22128A   25358.18878850  .00000100  00000+0  00000+0 0  9999", "line2": "2 54026   0.0126 315.9231 0001643 309.5058 122.5078  1.00272122 11987"}}, "geometry": {"type": "Point", "coordinates": [45.39641687534097, 0.017130727671831967]}}, {"type": "Feature", "properties": {"norad_id": 54027, "name": "GALAXY 34 (G-34)", "group": "intelsat", "lat": 0.024257885528748097, "lon": 49.42267438008023, "alt_km": 35792.35702493929, "timestamp": "2025-12-27T05:29:38.862243+00:00", "meta": {"OBJECT_NAME": "GALAXY 34 (G-34)", "OBJECT_ID": "2022-128B", "EPOCH": "2025-12-26T22:41:34.548864", "MEAN_MOTION": 1.00270482, "ECCENTRICITY": 0.00017753, "INCLINATION": 0.0231, "RA_OF_ASC_NODE": 16.9319, "ARG_OF_PERICENTER": 250.2607, "MEAN_ANOMALY": 39.9289, "EPHEMERIS_TYPE": 0, "CLASSIFICATION_TYPE": "U", "NORAD_CAT_ID": 54027, "ELEMENT_SET_NO": 999, "REV_AT_EPOCH": 1218, "BSTAR": 0, "MEAN_MOTION_DOT": 0, "MEAN_MOTION_DDOT": 0}, "tle": {"line1": "1 54027U 22128B   25360.94553876  .00000000  00000+0  00000+0 0  9994", "line2": "2 54027   0.0231  16.9319 0001775 250.2607  39.9289  1.00270482 12183"}}, "geometry": {"type": "Point", "coordinates": [49.42267438008023, 0.024257885528748097]}}, {"type": "Feature", "properties": {"norad_id": 54243, "name": "GALAXY 31 (G-31)", "group": "intelsat", "lat": 0.021372033265847863, "lon": 57.36817484686979, "alt_km": 35791.50921412831, "timestamp": "2025-12-27T05:29:38.862255+00:00", "meta": {"OBJECT_NAME": "GALAXY 31 (G-31)", "OBJECT_ID": "2022-153A", "EPOCH": "2025-12-26T13:10:42.272832", "MEAN_MOTION": 1.00270334, "ECCENTRICITY": 0.0001795, "INCLINATION": 0.0091, "RA_OF_ASC_NODE": 8.6381, "ARG_OF_PERICENTER": 277.034, "MEAN_ANOMALY": 246.2854, "EPHEMERIS_TYPE": 0, "CLASSIFICATION_TYPE": "U", "NORAD_CAT_ID": 54243, "ELEMENT_SET_NO": 999, "REV_AT_EPOCH": 540, "BSTAR": 0, "MEAN_MOTION_DOT": 0, "MEAN_MOTION_DDOT": 0}, "tle": {"line1": "1 54243U 22153A   25360.54910038  .00000000  00000+0  00000+0 0  9995", "line2": "2 54243   0.0091   8.6381 0001795 277.0340 246.2854  1.00270334  5401"}}, "geometry": {"type": "Point", "coordinates": [57.36817484686979, 0.021372033265847863]}}, {"type": "Feature", "properties": {"norad_id": 54244, "name": "GALAXY 32 (G-32)", "group": "intelsat", "lat": 0.02821441732319137, "lon": 87.39170087113091, "alt_km": 35791.54419310503, "timestamp": "2025-12-27T05:29:38.862266+00:00", "meta": {"OBJECT_NAME": "GALAXY 32 (G-32)", "OBJECT_ID": "2022-153B", "EPOCH": "2025-12-24T22:56:22.028928", "MEAN_MOTION": 1.00272509, "ECCENTRICITY": 0.0001992, "INCLINATION": 0.0091, "RA_OF_ASC_NODE": 20.8495, "ARG_OF_PERICENTER": 295.2988, "MEAN_ANOMALY": 30.6679, "EPHEMERIS_TYPE": 0, "CLASSIFICATION_TYPE": "U", "NORAD_CAT_ID": 54244, "ELEMENT_SET_NO": 999, "REV_AT_EPOCH": 1139, "BSTAR": 0, "MEAN_MOTION_DOT": -1.53e-06, "MEAN_MOTION_DDOT": 0}, "tle": {"line1": "1 54244U 22153B   25358.95581052 -.00000153  00000+0  00000+0 0  9998", "line2": "2 54244   0.0091  20.8495 0001992 295.2988  30.6679  1.00272509 11394"}}, "geometry": {"type": "Point", "coordinates": [87.39170087113091, 0.02821441732319137]}}, {"type": "Feature", "properties": {"norad_id": 54741, "name": "GALAXY 35 (G-35)", "group": "intelsat", "lat": 0.01133041107337899, "lon": 85.27528344299631, "alt_km": 35796.39946592757, "timestamp": "2025-12-27T05:29:38.862278+00:00", "meta": {"OBJECT_NAME": "GALAXY 35 (G-35)", "OBJECT_ID": "2022-170A", "EPOCH": "2025-12-26T13:26:41.271360", "MEAN_MOTION": 1.00270726, "ECCENTRICITY": 0.0002413, "INCLINATION": 0.0187, "RA_OF_ASC_NODE": 263.86, "ARG_OF_PERICENTER": 13.4145, "MEAN_ANOMALY": 286.6058, "EPHEMERIS_TYPE": 0, "CLASSIFICATION_TYPE": "U", "NORAD_CAT_ID": 54741, "ELEMENT_SET_NO": 999, "REV_AT_EPOCH": 1116, "BSTAR": 0, "MEAN_MOTION_DOT": -1.4e-06, "MEAN_MOTION_DDOT": 0}, "tle": {"line1": "1 54741U 22170A   25360.56019990 -.00000140  00000+0  00000+0 0  9992", "line2": "2 54741   0.0187 263.8600 0002413  13.4145 286.6058  1.00270726 11161"}}, "geometry": {"type": "Point", "coordinates": [85.27528344299631, 0.01133041107337899]}}, {"type": "Feature", "properties": {"norad_id": 54742, "name": "GALAXY 36 (G-36)", "group": "intelsat", "lat": 0.010975353327665199, "lon": 89.38113357584832, "alt_km": 35786.95956439362, "timestamp": "2025-12-27T05:29:38.862290+00:00", "meta": {"OBJECT_NAME": "GALAXY 36 (G-36)", "OBJECT_ID": "2022-170B", "EPOCH": "2025-12-26T13:28:40.561248", "MEAN_MOTION": 1.00271744, "ECCENTRICITY": 4.3e-05, "INCLINATION": 0.0211, "RA_OF_ASC_NODE": 101.6024, "ARG_OF_PERICENTER": 230.7236, "MEAN_ANOMALY": 236.1575, "EPHEMERIS_TYPE": 0, "CLASSIFICATION_TYPE": "U", "NORAD_CAT_ID": 54742, "ELEMENT_SET_NO": 999, "REV_AT_EPOCH": 1104, "BSTAR": 0, "MEAN_MOTION_DOT": -1.63e-06, "MEAN_MOTION_DDOT": 0}, "tle": {"line1": "1 54742U 22170B   25360.56158057 -.00000163  00000+0  00000+0 0  9996", "line2": "2 54742   0.0211 101.6024 0000430 230.7236 236.1575  1.00271744 11043"}}, "geometry": {"type": "Point", "coordinates": [89.38113357584832, 0.010975353327665199]}}, {"type": "Feature", "properties": {"norad_id": 57493, "name": "GALAXY 37 (G-37)", "group": "intelsat", "lat": 0.010220606675626472, "lon": 51.379058254648946, "alt_km": 35792.27143825207, "timestamp": "2025-12-27T05:29:38.862301+00:00", "meta": {"OBJECT_NAME": "GALAXY 37 (G-37)", "OBJECT_ID": "2023-112A", "EPOCH": "2025-12-26T22:41:57.012864", "MEAN_MOTION": 1.00271942, "ECCENTRICITY": 0.00022017, "INCLINATION": 0.0127, "RA_OF_ASC_NODE": 44.9222, "ARG_OF_PERICENTER": 234.3173, "MEAN_ANOMALY": 29.9245, "EPHEMERIS_TYPE": 0, "CLASSIFICATION_TYPE": "U", "NORAD_CAT_ID": 57493, "ELEMENT_SET_NO": 999, "REV_AT_EPOCH": 881, "BSTAR": 0, "MEAN_MOTION_DOT": 7e-07, "MEAN_MOTION_DDOT": 0}, "tle": {"line1": "1 57493U 23112A   25360.94579876  .00000070  00000+0  00000+0 0  9993", "line2": "2 57493   0.0127  44.9222 0002201 234.3173  29.9245  1.00271942  8815"}}, "geometry": {"type": "Point", "coordinates": [51.379058254648946, 0.010220606675626472]}}]}